OBJECT_NAME,OBJECT_ID,EPOCH,MEAN_MOTION,ECCENTRICITY,INCLINATION,RA_OF_ASC_NODE,ARG_OF_PERICENTER,MEAN_ANOMALY,EPHEMERIS_TYPE,CLASSIFICATION_TYPE,NORAD_CAT_ID,ELEMENT_SET_NO,REV_AT_EPOCH,BSTAR,MEAN_MOTION_DOT,MEAN_MOTION_DDOT
OSCAR 7 (AO-7),1974-089B,2026-07-06T01:05:36.816864,12.53698405,.00126608,101.9900,200.4886,95.2497,283.4144,0,U,7530,999,36288,-.10449623E-4,-.48E-6,0
PHASE 3B (AO-10),1983-058B,2026-07-05T08:02:48.848640,2.05868836,.6004761,25.9278,216.5709,120.6537,311.6572,0,U,14129,999,29586,0,.218E-5,0
UOSAT 2 (UO-11),1984-021B,2026-07-05T21:07:57.095616,14.90833072,.00090043,97.8068,152.2478,116.9719,243.2420,0,U,14781,999,25991,.14756126E-3,.1398E-4,0
LUSAT (LO-19),1990-005G,2026-07-06T00:28:03.561888,14.34128943,.00121671,98.8845,209.3435,146.5211,213.6744,0,U,20442,999,90509,.59992626E-4,.121E-5,0
EYESAT A (AO-27),1993-061C,2026-07-06T03:48:55.330272,14.30947458,.00092064,98.6872,254.5649,50.4327,309.7668,0,U,22825,999,70971,.56421533E-4,.104E-5,0
ITAMSAT (IO-26),1993-061D,2026-07-06T03:11:07.341504,14.31374903,.00094699,98.6819,254.4580,34.8920,325.2882,0,U,22826,999,71002,.57615047E-4,.108E-5,0
RADIO ROSTO (RS15),1994-085A,2026-07-06T06:32:52.044576,11.27583519,.01565919,64.8173,272.3505,0.3518,359.7491,0,U,23439,999,29805,.90303843E-4,-.39E-6,0
JAS-2 (FO-29),1996-046B,2026-07-06T03:56:19.276800,13.53275028,.03506957,98.5225,33.4351,47.3300,315.6829,0,U,24278,999,47573,.13163629E-4,-.21E-6,0
TECHSAT 1B (GO-32),1998-043D,2026-07-05T23:02:00.988224,14.24432127,.00018961,99.0076,180.1925,129.5946,230.5400,0,U,25397,999,45400,.48535587E-4,.66E-6,0
ISS (ZARYA),1998-067A,2026-07-06T02:08:05.621280,15.48915600,.00067325,51.6304,206.5355,261.2547,98.7678,0,U,25544,999,57468,.13761082E-3,.7119E-4,0
PCSAT (NO-44),2001-043C,2026-07-06T05:26:58.333056,14.31962594,.0005997,67.0487,195.0256,265.8925,94.1492,0,U,26931,999,29317,.74703636E-4,.117E-5,0
SAUDISAT 1C (SO-50),2002-058C,2026-07-06T02:29:05.783424,14.83086846,.0074778,64.5520,70.4578,258.9395,100.3295,0,U,27607,999,26726,.13138747E-3,.968E-5,0
CUTE-1 (CO-55),2003-031E,2026-07-06T00:05:51.542592,14.24347598,.00105732,98.6737,195.3263,126.4787,233.7367,0,U,27844,999,19435,.15365181E-3,.312E-5,0
CUBESAT XI-IV (CO-57),2003-031J,2026-07-06T00:02:50.914752,14.23631104,.00101586,98.6770,195.0217,143.6881,216.4988,0,U,27848,999,19405,.13358001E-3,.261E-5,0
MOZHAETS 4 (RS22),2003-042A,2026-07-06T07:20:40.052832,14.73504656,.00105404,98.3475,12.2049,202.2766,282.7303,0,U,27939,999,21836,.23783605E-3,.1493E-4,0
CUBESAT XI-V,2005-043F,2026-07-05T09:47:41.053920,14.72685124,.00148413,98.3005,342.4147,144.0208,216.2000,0,U,28895,999,10443,.30607604E-3,.1902E-4,0
CUTE-1.7+APD II (CO-65),2008-021C,2026-07-06T04:57:46.878912,15.09646239,.00076754,97.8291,169.0238,336.2233,23.8639,0,U,32785,999,98806,.33294216E-3,.5294E-4,0
SEEDS II (CO-66),2008-021J,2026-07-05T22:24:17.004096,15.33438774,.00019257,97.7526,185.7350,178.5617,181.5631,0,U,32791,999,99016,.63447274E-3,.20454E-3,0
YUBILEINY (RS30),2008-025A,2026-07-06T06:03:13.660416,12.43180391,.00185008,82.5057,343.5789,269.8179,90.0781,0,U,32953,999,82206,.29999923E-3,.51E-6,0
KKS-1 (KISEKI),2009-002H,2026-07-06T06:45:45.087840,14.83174647,.00067472,98.1181,110.0265,220.6250,139.4461,0,U,33499,999,93902,.18460235E-3,.1451E-4,0
SWISSCUBE,2009-051B,2026-07-06T04:31:24.909600,14.62519394,.00073384,98.4019,95.4068,143.7064,216.4636,0,U,35932,999,89193,.22538247E-3,.1094E-4,0
BEESAT-1,2009-051C,2026-07-06T04:59:17.126304,14.61752368,.00055614,98.3947,95.0219,154.2059,205.9420,0,U,35933,999,89196,.19294386E-3,.913E-5,0
ITUPSAT1,2009-051E,2026-07-06T05:10:10.350048,14.60469979,.00074326,98.4029,94.2012,169.5257,190.6099,0,U,35935,999,89151,.18182091E-3,.833E-5,0
XIWANG-1 (HOPE-1),2009-072B,2026-07-06T05:50:52.445184,13.16438902,.00072858,100.4037,140.7723,185.2728,174.8310,0,U,36122,999,79551,-.18245871E-4,-.51E-6,0
O/OREOS (USA 219),2010-062C,2026-07-06T00:20:21.347808,14.93827554,.0013414,71.9706,37.6899,23.3512,336.8265,0,U,37224,999,11945,.25559917E-3,.2656E-4,0
JUGNU,2011-058B,2026-07-06T03:22:37.482240,14.13781484,.00183457,19.9587,193.2770,285.8681,133.6572,0,U,37839,999,76171,.70824234E-4,.403E-5,0
SRMSAT,2011-058D,2026-07-05T14:40:37.340256,14.11579636,.0011863,19.9728,307.9551,46.8223,73.4725,0,U,37841,999,76042,.75655E-4,.404E-5,0
STRAND-1,2013-009E,2026-07-05T10:27:58.912992,14.37175147,.0008827,98.3930,6.2219,168.5564,191.5825,0,U,39090,999,69968,.1469E-3,.394E-5,0
ZACUBE-1 (TSHEPISOSAT),2013-066B,2026-07-05T20:53:12.400224,15.01298892,.00433357,97.8029,149.3009,185.1582,174.9202,0,U,39417,999,68353,.30308958E-3,.3914E-4,0
GOMX-1,2013-066Q,2026-07-06T07:40:17.704704,14.69528945,.01290643,97.6472,26.5744,16.6920,343.8475,0,U,39430,999,67272,.41579994E-3,.2752E-4,0
