ISS (ZARYA)             
1 25544U 98067A   26187.08895395  .00007119  00000+0  13761-3 0  9999
2 25544  51.6304 206.5355 0006732 261.2547  98.7678 15.48915600574686
OSCAR 7 (AO-7)          
1 07530U 74089B   26187.04556501 -.00000048  00000+0 -10450-4 0  9990
2 07530 101.9900 200.4886 0012660  95.2497 283.4144 12.53698405362882
PHASE 3B (AO-10)        
1 14129U 83058B   26186.33528760  .00000218  00000+0  00000+0 0  9997
2 14129  25.9278 216.5709 6004761 120.6537 311.6572  2.05868836295861
UOSAT 2 (UO-11)         
1 14781U 84021B   26186.88052194  .00001398  00000+0  14756-3 0  9992
2 14781  97.8068 152.2478 0009004 116.9719 243.2420 14.90833072259917
LUSAT (LO-19)           
1 20442U 90005G   26187.01948567  .00000121  00000+0  59993-4 0  9992
2 20442  98.8845 209.3435 0012167 146.5211 213.6744 14.34128943905098
EYESAT A (AO-27)        
1 22825U 93061C   26187.15897373  .00000104  00000+0  56422-4 0  9992
2 22825  98.6872 254.5649 0009206  50.4327 309.7668 14.30947458709712
ITAMSAT (IO-26)         
1 22826U 93061D   26187.13272386  .00000108  00000+0  57615-4 0  9991
2 22826  98.6819 254.4580 0009469  34.8920 325.2882 14.31374903710020
RADIO ROSTO (RS15)      
1 23439U 94085A   26187.27282459 -.00000039  00000+0  90304-4 0  9992
2 23439  64.8173 272.3505 0156591   0.3518 359.7491 11.27583519298054
JAS-2 (FO-29)           
1 24278U 96046B   26187.16411200 -.00000021  00000+0  13164-4 0  9999
2 24278  98.5225  33.4351 0350695  47.3300 315.6829 13.53275028475736
TECHSAT 1B (GO-32)      
1 25397U 98043D   26186.95973366  .00000066  00000+0  48536-4 0  9992
2 25397  99.0076 180.1925 0001896 129.5946 230.5400 14.24432127454002
PCSAT (NO-44)           
1 26931U 01043C   26187.22706404  .00000117  00000+0  74704-4 0  9992
2 26931  67.0487 195.0256 0005997 265.8925  94.1492 14.31962594293175
SAUDISAT 1C (SO-50)     
1 27607U 02058C   26187.10353916  .00000968  00000+0  13139-3 0  9991
2 27607  64.5520  70.4578 0074778 258.9395 100.3295 14.83086846267262
CUTE-1 (CO-55)          
1 27844U 03031E   26187.00406878  .00000312  00000+0  15365-3 0  9997
2 27844  98.6737 195.3263 0010573 126.4787 233.7367 14.24347598194357
CUBESAT XI-IV (CO-57)   
1 27848U 03031J   26187.00197818  .00000261  00000+0  13358-3 0  9995
2 27848  98.6770 195.0217 0010158 143.6881 216.4988 14.23631104194051
MOZHAETS 4 (RS22)       
1 27939U 03042A   26187.30601913  .00001493  00000+0  23784-3 0  9999
2 27939  98.3475  12.2049 0010540 202.2766 282.7303 14.73504656218367
CUBESAT XI-V            
1 28895U 05043F   26186.40811405  .00001902  00000+0  30608-3 0  9991
2 28895  98.3005 342.4147 0014841 144.0208 216.2000 14.72685124104434
CUTE-1.7+APD II (CO-65) 
1 32785U 08021C   26187.20679258  .00005294  00000+0  33294-3 0  9992
2 32785  97.8291 169.0238 0007675 336.2233  23.8639 15.09646239988066
SEEDS II (CO-66)        
1 32791U 08021J   26186.93353014  .00020454  00000+0  63447-3 0  9995
2 32791  97.7526 185.7350 0001925 178.5617 181.5631 15.33438774990166
YUBILEINY (RS30)        
1 32953U 08025A   26187.25224144  .00000051  00000+0  30000-3 0  9996
2 32953  82.5057 343.5789 0018500 269.8179  90.0781 12.43180391822061
KKS-1 (KISEKI)          
1 33499U 09002H   26187.28177185  .00001451  00000+0  18460-3 0  9994
2 33499  98.1181 110.0265 0006747 220.6250 139.4461 14.83174647939020
SWISSCUBE               
1 35932U 09051B   26187.18848275  .00001094  00000+0  22538-3 0  9990
2 35932  98.4019  95.4068 0007338 143.7064 216.4636 14.62519394891935
BEESAT-1                
1 35933U 09051C   26187.20783711  .00000913  00000+0  19294-3 0  9991
2 35933  98.3947  95.0219 0005561 154.2059 205.9420 14.61752368891962
ITUPSAT1                
1 35935U 09051E   26187.21539757  .00000833  00000+0  18182-3 0  9999
2 35935  98.4029  94.2012 0007432 169.5257 190.6099 14.60469979891511
XIWANG-1 (HOPE-1)       
1 36122U 09072B   26187.24366256 -.00000051  00000+0 -18246-4 0  9992
2 36122 100.4037 140.7723 0007285 185.2728 174.8310 13.16438902795518
O/OREOS (USA 219)       
1 37224U 10062C   26187.01413597  .00002656  00000+0  25560-3 0  9990
2 37224  71.9706  37.6899 0013414  23.3512 336.8265 14.93827554119452
JUGNU                   
1 37839U 11058B   26187.14071160  .00000403  00000+0  70824-4 0  9990
2 37839  19.9587 193.2770 0018345 285.8681 133.6572 14.13781484761719
SRMSAT                  
1 37841U 11058D   26186.61154329  .00000404  00000+0  75655-4 0  9991
2 37841  19.9728 307.9551 0011863  46.8223  73.4725 14.11579636760425
STRAND-1                
1 39090U 13009E   26186.43609853  .00000394  00000+0  14690-3 0  9993
2 39090  98.3930   6.2219 0008827 168.5564 191.5825 14.37175147699684
ZACUBE-1 (TSHEPISOSAT)  
1 39417U 13066B   26186.87028241  .00003914  00000+0  30309-3 0  9999
2 39417  97.8029 149.3009 0043335 185.1582 174.9202 15.01298892683530
GOMX-1                  
1 39430U 13066Q   26187.31964936  .00002752  00000+0  41580-3 0  9996
2 39430  97.6472  26.5744 0129064  16.6920 343.8475 14.69528945672721
